[{"OBJECT_NAME":"STARLINK-36912","OBJECT_ID":"2026-038A","EPOCH":"2026-03-09T22:00:01.999584","MEAN_MOTION":15.86809147,"ECCENTRICITY":0.00013578,"INCLINATION":97.2745,"RA_OF_ASC_NODE":79.2046,"ARG_OF_PERICENTER":85.4216,"MEAN_ANOMALY":163.5427,"EPHEMERIS_TYPE":0,"CLASSIFICATION_TYPE":"U","NORAD_CAT_ID":67961,"ELEMENT_SET_NO":999,"REV_AT_EPOCH":323,"BSTAR":-0.0068871528,"MEAN_MOTION_DOT":-0.01544349,"MEAN_MOTION_DDOT":0},{"OBJECT_NAME":"CZ-2D DEB","OBJECT_ID":"2005-024L","EPOCH":"2026-03-06T07:38:56.656320","MEAN_MOTION":15.78698644,"ECCENTRICITY":0.00065736,"INCLINATION":97.1694,"RA_OF_ASC_NODE":99.2993,"ARG_OF_PERICENTER":133.8674,"MEAN_ANOMALY":226.3138,"EPHEMERIS_TYPE":0,"CLASSIFICATION_TYPE":"U","NORAD_CAT_ID":35272,"ELEMENT_SET_NO":999,"REV_AT_EPOCH":12318,"BSTAR":0.00064046997,"MEAN_MOTION_DOT":0.00112943,"MEAN_MOTION_DDOT":0}]
